{
  "type": "FeatureCollection",
  "features": [
    {
      "type": "Feature",
      "properties": {
        "norad_id": 29904,
        "name": "FENGYUN 1C DEB",
        "group": "fengyun-1c-debris",
        "lat": -65.83930369426845,
        "lon": 34.59648832079727,
        "alt_km": 666.8385583935897,
        "timestamp": "2025-12-02T13:52:17.534330+00:00",
        "meta_object_name": "FENGYUN 1C DEB",
        "meta_object_id": "1999-025HA",
        "meta_epoch": "2025-12-02T00:52:20.976960",
        "meta_mean_motion": 14.44412055,
        "meta_eccentricity": 0.02084324,
        "meta_inclination": 99.0435,
        "meta_ra_of_asc_node": 13.2247,
        "meta_arg_of_pericenter": 350.5443,
        "meta_mean_anomaly": 9.1848,
        "meta_ephemeris_type": 0,
        "meta_classification_type": "U",
        "meta_norad_cat_id": 29904,
        "meta_element_set_no": 999,
        "meta_rev_at_epoch": 98909,
        "meta_bstar": 0.00047972496,
        "meta_mean_motion_dot": 2.096e-05,
        "meta_mean_motion_ddot": 0,
        "tle_line1": "1 29904U 99025HA  25336.03635390  .00002096  00000+0  47972-3 0  9995",
        "tle_line2": "2 29904  99.0435  13.2247 0208432 350.5443   9.1848 14.44412055989093"
      },
      "geometry": {
        "type": "Point",
        "coordinates": [
          34.59648832079727,
          -65.83930369426845
        ]
      }
    },
    {
      "type": "Feature",
      "properties": {
        "norad_id": 29906,
        "name": "FENGYUN 1C DEB",
        "group": "fengyun-1c-debris",
        "lat": 24.65481962130801,
        "lon": 75.56393428496932,
        "alt_km": 751.2294684630006,
        "timestamp": "2025-12-02T13:52:17.534340+00:00",
        "meta_object_name": "FENGYUN 1C DEB",
        "meta_object_id": "1999-025HC",
        "meta_epoch": "2025-12-02T05:28:16.356576",
        "meta_mean_motion": 14.49299122,
        "meta_eccentricity": 0.00376603,
        "meta_inclination": 98.7061,
        "meta_ra_of_asc_node": 79.2359,
        "meta_arg_of_pericenter": 180.0567,
        "meta_mean_anomaly": 180.0627,
        "meta_ephemeris_type": 0,
        "meta_classification_type": "U",
        "meta_norad_cat_id": 29906,
        "meta_element_set_no": 999,
        "meta_rev_at_epoch": 98005,
        "meta_bstar": 0.0032686244,
        "meta_mean_motion_dot": 0.00012559,
        "meta_mean_motion_ddot": 0,
        "tle_line1": "1 29906U 99025HC  25336.22796709  .00012559  00000+0  32686-2 0  9990",
        "tle_line2": "2 29906  98.7061  79.2359 0037660 180.0567 180.0627 14.49299122980052"
      },
      "geometry": {
        "type": "Point",
        "coordinates": [
          75.56393428496932,
          24.65481962130801
        ]
      }
    },
    {
      "type": "Feature",
      "properties": {
        "norad_id": 29907,
        "name": "FENGYUN 1C DEB",
        "group": "fengyun-1c-debris",
        "lat": 63.551940988518766,
        "lon": -118.07969273617519,
        "alt_km": 905.393972546206,
        "timestamp": "2025-12-02T13:52:17.534351+00:00",
        "meta_object_name": "FENGYUN 1C DEB",
        "meta_object_id": "1999-025HD",
        "meta_epoch": "2025-12-02T03:15:25.774272",
        "meta_mean_motion": 14.1153741,
        "meta_eccentricity": 0.00831719,
        "meta_inclination": 99.1129,
        "meta_ra_of_asc_node": 42.6476,
        "meta_arg_of_pericenter": 279.2738,
        "meta_mean_anomaly": 109.7431,
        "meta_ephemeris_type": 0,
        "meta_classification_type": "U",
        "meta_norad_cat_id": 29907,
        "meta_element_set_no": 999,
        "meta_rev_at_epoch": 96449,
        "meta_bstar": 0.001854297,
        "meta_mean_motion_dot": 3.431e-05,
        "meta_mean_motion_ddot": 0,
        "tle_line1": "1 29907U 99025HD  25336.13571498  .00003431  00000+0  18543-2 0  9992",
        "tle_line2": "2 29907  99.1129  42.6476 0083171 279.2738 109.7431 14.11537410964491"
      },
      "geometry": {
        "type": "Point",
        "coordinates": [
          -118.07969273617519,
          63.551940988518766
        ]
      }
    },
    {
      "type": "Feature",
      "properties": {
        "norad_id": 29909,
        "name": "FENGYUN 1C DEB",
        "group": "fengyun-1c-debris",
        "lat": -76.95395656198029,
        "lon": -140.93651192125049,
        "alt_km": 740.3545105664771,
        "timestamp": "2025-12-02T13:52:17.534361+00:00",
        "meta_object_name": "FENGYUN 1C DEB",
        "meta_object_id": "1999-025HF",
        "meta_epoch": "2025-12-02T06:19:26.633280",
        "meta_mean_motion": 14.54816606,
        "meta_eccentricity": 0.0038712,
        "meta_inclination": 98.6352,
        "meta_ra_of_asc_node": 79.721,
        "meta_arg_of_pericenter": 48.5849,
        "meta_mean_anomaly": 5.7488,
        "meta_ephemeris_type": 0,
        "meta_classification_type": "U",
        "meta_norad_cat_id": 29909,
        "meta_element_set_no": 999,
        "meta_rev_at_epoch": 98253,
        "meta_bstar": 0.0024962888,
        "meta_mean_motion_dot": 0.00010781,
        "meta_mean_motion_ddot": 0,
        "tle_line1": "1 29909U 99025HF  25336.26350270  .00010781  00000+0  24963-2 0  9990",
        "tle_line2": "2 29909  98.6352  79.7210 0038712  48.5849   5.7488 14.54816606982539"
      },
      "geometry": {
        "type": "Point",
        "coordinates": [
          -140.93651192125049,
          -76.95395656198029
        ]
      }
    },
    {
      "type": "Feature",
      "properties": {
        "norad_id": 29911,
        "name": "FENGYUN 1C DEB",
        "group": "fengyun-1c-debris",
        "lat": -71.08892175785125,
        "lon": 46.46737998571895,
        "alt_km": 842.6198779536935,
        "timestamp": "2025-12-02T13:52:17.534371+00:00",
        "meta_object_name": "FENGYUN 1C DEB",
        "meta_object_id": "1999-025HH",
        "meta_epoch": "2025-12-01T15:06:52.782912",
        "meta_mean_motion": 14.18800356,
        "meta_eccentricity": 0.00271531,
        "meta_inclination": 98.7168,
        "meta_ra_of_asc_node": 18.9316,
        "meta_arg_of_pericenter": 181.7494,
        "meta_mean_anomaly": 304.4376,
        "meta_ephemeris_type": 0,
        "meta_classification_type": "U",
        "meta_norad_cat_id": 29911,
        "meta_element_set_no": 999,
        "meta_rev_at_epoch": 97273,
        "meta_bstar": 0.00075042606,
        "meta_mean_motion_dot": 1.522e-05,
        "meta_mean_motion_ddot": 0,
        "tle_line1": "1 29911U 99025HH  25335.62977758  .00001522  00000+0  75043-3 0  9997",
        "tle_line2": "2 29911  98.7168  18.9316 0027153 181.7494 304.4376 14.18800356972734"
      },
      "geometry": {
        "type": "Point",
        "coordinates": [
          46.46737998571895,
          -71.08892175785125
        ]
      }
    },
    {
      "type": "Feature",
      "properties": {
        "norad_id": 29912,
        "name": "FENGYUN 1C DEB",
        "group": "fengyun-1c-debris",
        "lat": 80.4736163810338,
        "lon": 7.347364037541743,
        "alt_km": 770.8592270161071,
        "timestamp": "2025-12-02T13:52:17.534381+00:00",
        "meta_object_name": "FENGYUN 1C DEB",
        "meta_object_id": "1999-025HJ",
        "meta_epoch": "2025-12-02T05:26:51.115200",
        "meta_mean_motion": 14.4271984,
        "meta_eccentricity": 0.00424536,
        "meta_inclination": 98.7383,
        "meta_ra_of_asc_node": 73.4094,
        "meta_arg_of_pericenter": 249.3711,
        "meta_mean_anomaly": 175.0122,
        "meta_ephemeris_type": 0,
        "meta_classification_type": "U",
        "meta_norad_cat_id": 29912,
        "meta_element_set_no": 999,
        "meta_rev_at_epoch": 97887,
        "meta_bstar": 0.0027923467,
        "meta_mean_motion_dot": 9.362e-05,
        "meta_mean_motion_ddot": 0,
        "tle_line1": "1 29912U 99025HJ  25336.22698050  .00009362  00000+0  27923-2 0  9993",
        "tle_line2": "2 29912  98.7383  73.4094 0042453 249.3711 175.0122 14.42719840978872"
      },
      "geometry": {
        "type": "Point",
        "coordinates": [
          7.347364037541743,
          80.4736163810338
        ]
      }
    },
    {
      "type": "Feature",
      "properties": {
        "norad_id": 29913,
        "name": "FENGYUN 1C DEB",
        "group": "fengyun-1c-debris",
        "lat": 52.29758985086003,
        "lon": -35.83468137643339,
        "alt_km": 880.6360087314779,
        "timestamp": "2025-12-02T13:52:17.534391+00:00",
        "meta_object_name": "FENGYUN 1C DEB",
        "meta_object_id": "1999-025HK",
        "meta_epoch": "2025-12-01T22:32:25.158048",
        "meta_mean_motion": 14.07361867,
        "meta_eccentricity": 0.00620846,
        "meta_inclination": 98.7874,
        "meta_ra_of_asc_node": 335.0879,
        "meta_arg_of_pericenter": 302.3178,
        "meta_mean_anomaly": 115.5889,
        "meta_ephemeris_type": 0,
        "meta_classification_type": "U",
        "meta_norad_cat_id": 29913,
        "meta_element_set_no": 999,
        "meta_rev_at_epoch": 96813,
        "meta_bstar": 0.00048205836,
        "meta_mean_motion_dot": 7.81e-06,
        "meta_mean_motion_ddot": 0,
        "tle_line1": "1 29913U 99025HK  25335.93918007  .00000781  00000+0  48206-3 0  9992",
        "tle_line2": "2 29913  98.7874 335.0879 0062084 302.3178 115.5889 14.07361867968135"
      },
      "geometry": {
        "type": "Point",
        "coordinates": [
          -35.83468137643339,
          52.29758985086003
        ]
      }
    }
  ]
}